localityName,x,y,latitude,longitude,zone,altitude,horiz_precision,vert_precision,planeType,dip,dipAzimuth,strike,declination,rockUnit,timedate,notes,dec_corrected,strike_corr,dipAzimuth_corr,measurer
 Locality 1,681962.9437,5138138.323,46.37233824,-90.63408771, 15T,4,5,-1, Flow banding,53.4441452,343.8571777,253.8571777,-2.12169719, Kallander Creek basalts, Wed Aug  3 11:05:07 2016, ,yes,,,LF
 Locality 1,681963.8088,5138139.817,46.37235145,-90.63407589, 15T,4,5,-1, Flow banding,54.3780632,351.7736816,261.7736816,-2.12169719, Kallander Creek basalts, Wed Aug  3 11:05:02 2016, ,yes,,,LF
 Locality 1,681963.881,5138141.93,46.37237043,-90.63407413, 15T,4,5,-1, Flow banding,58.00748825,338.4713745,248.4713745,-2.12169719, Kallander Creek basalts, Wed Aug  3 11:04:54 2016, ,yes,,,LF
 Locality 1,681962.4972,5138142.681,46.37237756,-90.63409181, 15T,3,5,-1, Flow banding,55.55392838,315.4606628,225.4606628,-2.12169719, Kallander Creek basalts, Wed Aug  3 11:04:46 2016, ,yes,,,LF
 Locality 1,681962.4972,5138142.681,46.37237756,-90.63409181, 15T,3,5,-1, Flow banding,59.59695053,355.160614,265.160614,-2.12169719, Kallander Creek basalts, Wed Aug  3 11:04:40 2016, ,yes,,,LF
 Locality 1,681962.4972,5138142.681,46.37237756,-90.63409181, 15T,3,5,-1, Flow banding,59.50971603,334.5426636,244.5426636,-2.12169719, Kallander Creek basalts, Wed Aug  3 11:04:35 2016, ,yes,,,LF
 Locality 1,681766.3094,5138458.779,46.37527267,-90.63651779, 15T,6,10,-1, Bedding,68.01768494,337.2093506,247.2093506,-2.12169719, Kallander Creek interflow sandstone, Mon Aug  1 12:10:43 2016, ,yes,,,LF
 Locality 1,681766.3094,5138458.779,46.37527267,-90.63651779, 15T,6,10,-1, Bedding,78.55313873,309.0515747,219.0515747,-2.12169719, Kallander Creek interflow sandstone, Mon Aug  1 12:10:32 2016, ,yes,,,LF
 Locality 1,681766.3094,5138458.779,46.37527267,-90.63651779, 15T,6,10,-1, Bedding,65.31395721,335.4668274,245.4668274,-2.12169719, Kallander Creek interflow sandstone, Mon Aug  1 12:10:07 2016, ,yes,,,LF
 Locality 1,681767.3061,5138459.755,46.37528117,-90.63650446, 15T,12,10,-1, Bedding,63.37278366,322.0531921,232.0531921,-2.12169719, Kallander Creek interflow sandstone, Mon Aug  1 12:09:57 2016, ,yes,,,LF
 Locality 1,681767.3061,5138459.755,46.37528117,-90.63650446, 15T,12,10,-1, Bedding,73.29456329,325.8865356,235.8865356,-2.12169719, Kallander Creek interflow sandstone, Mon Aug  1 12:09:44 2016, ,yes,,,LF
 Locality 1,681767.3061,5138459.755,46.37528117,-90.63650446, 15T,12,10,-1, Bedding,72.61290741,323.1796875,233.1796875,-2.12169719, Kallander Creek interflow sandstone, Mon Aug  1 12:09:11 2016, ,yes,,,LF
 Locality 1,681766.7303,5138460.456,46.37528763,-90.63651167, 15T,12,10,-1, Bedding,69.24359894,326.5115051,236.5115051,-2.12169719, Kallander Creek interflow sandstone, Mon Aug  1 12:09:00 2016, ,yes,,,LF
 Locality 1,681495.1841,5138557.485,46.37623302,-90.64000189, 15T,12,5,-1, Fault,87.6996994,278.4966126,188.4966126,-2.12169719, Nonesuch shale , Wed Jul 20 17:35:42 2016, ,yes,,,LF
 Locality 1,681500.2128,5138558.469,46.37624052,-90.63993618, 15T,12,5,-1, Fault,89,286.6697998,196.6697998,-2.12169719, Nonesuch shale , Wed Jul 20 17:27:20 2016, ,yes,,,LF
 Locality 1,681507.6656,5138559.078,46.376244,-90.63983912, 15T,4,5,-1, Fault,84.72885132,302.5185547,212.5185547,-2.12169719, Nonesuch shale , Wed Jul 20 17:25:10 2016, Contact bedding CHC,yes,,,LF
 Locality 1,681507.934,5138558.732,46.37624082,-90.63983576, 15T,8,5,-1, Fault,88.95295715,301.4017944,211.4017944,-2.12169719, Nonesuch shale , Wed Jul 20 17:24:21 2016, ,yes,,,LF
 Locality 1,681512.0888,5138560.03,46.37625138,-90.63978128, 15T,16,10,-1, Fault,89,280.3822632,190.3822632,-2.12169719, Nonesuch shale , Wed Jul 20 17:22:28 2016, ,yes,,,LF
 Locality 1,681562.3572,5138527.917,46.37594913,-90.63914065, 15T,12,5,-1, Fault,71.76864624,355.3209534,265.3209534,-2.12169719, Copper Harbor conglomerate , Wed Jul 20 17:10:52 2016, ,yes,,,LF
 Locality 1,681618.2531,5138499.012,46.3756742,-90.63842568, 15T,12,5,-1, Bedding,89,132.4062805,42.40628052,-2.12169719, Siltstone above Kallander Creek rhyolite, Wed Jul 20 16:58:54 2016, ,yes,,,LF
 Locality 1,681618.2531,5138499.012,46.3756742,-90.63842568, 15T,12,5,-1, Bedding,81.74743652,130.0712433,40.07124329,-2.12169719, Siltstone above Kallander Creek rhyolite, Wed Jul 20 16:57:54 2016, ,yes,,,LF
 Locality 1,681618.2531,5138499.012,46.3756742,-90.63842568, 15T,12,5,-1, Bedding,85.81188202,309.5050049,219.5050049,-2.12169719, Siltstone above Kallander Creek rhyolite, Wed Jul 20 16:57:30 2016, ,yes,,,LF
 Locality 1,681750.2504,5138435.69,46.37506936,-90.63673538, 15T,12,5,-1, Joint,68.99562836,309.8156738,219.8156738,-2.12169719, Kallander Creek rhyolite, Wed Jul 20 16:10:21 2016, ,yes,,,LF
 Locality 1,681750.2504,5138435.69,46.37506936,-90.63673538, 15T,12,5,-1, Joint,67.41461182,326.014801,236.014801,-2.12169719, Kallander Creek rhyolite, Wed Jul 20 16:10:03 2016, Base of flow,yes,,,LF
 Locality 1,681750.2504,5138435.69,46.37506936,-90.63673538, 15T,12,5,-1, Joint,71.00362396,308.8482361,218.8482361,-2.12169719, Kallander Creek rhyolite, Wed Jul 20 16:09:25 2016, Base of flow,yes,,,LF
 Locality 1,681750.2504,5138435.69,46.37506936,-90.63673538, 15T,12,5,-1, Joint,71.8698349,314.7998352,224.7998352,-2.12169719, Kallander Creek rhyolite, Wed Jul 20 16:09:09 2016, Base of flow,yes,,,LF
 Locality 1,681750.2504,5138435.69,46.37506936,-90.63673538, 15T,12,5,-1, Bedding,76.31938171,295.7791748,205.7791748,-2.12169719, Kallander Creek interflow sandstone, Wed Jul 20 15:42:46 2016, ,yes,,,LF
 Locality 1,681805.4866,5138387.466,46.37462089,-90.6360365, 15T,12,10,-1, Bedding,53.94830704,342.9484863,252.9484863,-2.12169719, Kallander Creek interflow sandstone, Wed Jul 20 14:06:46 2016, ,yes,,,LF
 Locality 1,681803.022,5138388.33,46.37462931,-90.63606818, 15T,8,5,-1, Bedding,59.5804863,355.9339905,265.9339905,-2.12169719, Kallander Creek interflow sandstone, Wed Jul 20 14:06:08 2016, ,yes,,,LF
 Locality 1,681800.6976,5138390.548,46.37464989,-90.63609752, 15T,8,5,-1, Bedding,65.31364441,347.3562622,257.3562622,-2.12169719, Kallander Creek interflow sandstone, Wed Jul 20 14:05:51 2016, ,yes,,,LF
 Locality 1,681800.6976,5138390.548,46.37464989,-90.63609752, 15T,8,5,-1, Bedding,61.48574448,1.24797249,271.2479858,-2.12169719, Kallander Creek interflow sandstone, Wed Jul 20 14:05:37 2016, ,yes,,,LF
 Locality 1,681968.4743,5138141.737,46.37236746,-90.63401453, 15T,6,10,-1, Joint,52.46390533,324.5584106,234.5584106,-2.12169719, Kallander Creek basalts, Wed Jul 20 10:39:41 2016, ,yes,,,LF
 Locality 1,681964.9005,5138141.928,46.37237014,-90.63406088, 15T,8,5,-1, Flowtop ,52.90697479,325.9353638,235.9353638,-2.12169719, Kallander Creek basalts, Wed Jul 20 10:38:02 2016, ,yes,,,LF
 Locality 1,681964.4865,5138138.514,46.37233954,-90.63406759, 15T,8,5,-1, Flowtop ,58.3898735,331.1143799,241.1143799,-2.12169719, Kallander Creek basalts, Wed Jul 20 10:37:36 2016, ,yes,,,LF
 Locality 1,681960.391,5138140.4,46.37235761,-90.63412006, 15T,12,10,-1, Flowtop ,61.97845459,335.2390442,245.2390442,-2.12169719, Kallander Creek basalts, Wed Jul 20 10:37:06 2016, ,yes,,,LF
 Locality 1,681975.6692,5138128.767,46.37224889,-90.6339261, 15T,4,5,-1, Fault,53.90070343,335.3291626,245.3291626,-2.12169719, Kallander Creek basalts, Wed Jul 20 10:26:58 2016, ,yes,,,LF
 Locality 1,681976.214,5138128.89,46.37224986,-90.63391898, 15T,3,5,-1, Flowtop ,53.26768112,348.692627,258.692627,-2.12169719, Kallander Creek basalts, Wed Jul 20 10:26:27 2016, ,yes,,,LF
 Locality 1,681976.9302,5138128.674,46.37224772,-90.63390976, 15T,3,5,-1, Flowtop ,64.4098587,342.1343384,252.1343384,-2.12169719, Kallander Creek basalts, Wed Jul 20 10:26:10 2016, ,yes,,,LF
 Locality 1,681976.2551,5138130.318,46.37226268,-90.63391789, 15T,4,5,-1, Flowtop ,57.06835175,324.1578064,234.1578064,-2.12169719, Kallander Creek basalts, Wed Jul 20 10:25:27 2016, ,yes,,,LF
 Locality 1,681976.2551,5138130.318,46.37226268,-90.63391789, 15T,4,5,-1, Flowtop ,54.49819183,35.77187729,305.7718811,-2.12169719, Kallander Creek basalts, Wed Jul 20 10:25:07 2016, ,yes,,,LF
 Locality 1,681975.3383,5138129.26,46.37225342,-90.63393021, 15T,6,5,-1, Flowtop ,69.11495209,346.8522034,256.8522034,-2.12169719, Kallander Creek basalts, Wed Jul 20 10:24:47 2016, ,yes,,,LF
 Locality 1,682112.2765,5138102.392,46.37197497,-90.63216171, 15T,6,5,-1, Joint,51.98582458,347.7761536,257.7761536,-2.12169719, Kallander Creek basalts, Tue Jul 19 17:06:49 2016, ,yes,,,LF
 Locality 1,682126.8926,5138054.26,46.37153823,-90.63199055, 15T,4,5,-1, Flowtop ,53.06452179,321.8761597,231.8761597,-2.12169719, Kallander Creek basalts, Tue Jul 19 16:38:39 2016, ,yes,,,LF
 Locality 1,682127.6065,5138051.965,46.3715174,-90.63198217, 15T,3,5,-1, Flowtop ,60.33424759,331.7310181,241.7310181,-2.12169719, Kallander Creek basalts, Tue Jul 19 16:37:47 2016, ,yes,,,LF
 Locality 1,682127.6065,5138051.965,46.3715174,-90.63198217, 15T,3,5,-1, Flowtop ,54.10206985,327.346344,237.346344,-2.12169719, Kallander Creek basalts, Tue Jul 19 16:37:27 2016, ,yes,,,LF
 Locality 1,682127.6065,5138051.965,46.3715174,-90.63198217, 15T,3,5,-1, Flow banding,53.06698227,324.6063232,234.6063232,-2.12169719, Kallander Creek basalts, Tue Jul 19 16:36:12 2016, ,yes,,,LF
 Locality 1,682127.6656,5138060.337,46.37159267,-90.63197815, 15T,6,5,-1, Flow banding,56.03026962,327.4897766,237.4897766,-2.12169719, Kallander Creek basalts, Tue Jul 19 16:33:48 2016, ,yes,,,LF
 Locality 1,682130.2668,5138061.17,46.37159946,-90.63194403, 15T,6,5,-1, Flow banding,51.93795395,305.6505737,215.6505737,-2.12169719, Kallander Creek basalts, Tue Jul 19 16:32:33 2016, ,yes,,,LF
 Locality 1,682129.1089,5138057.388,46.37156577,-90.63196055, 15T,8,5,-1, Flow banding,54.10569382,313.8475342,223.8475342,-2.12169719, Kallander Creek basalts, Tue Jul 19 16:31:46 2016, ,yes,,,LF
 Locality 1,682128.0913,5138054.953,46.37154414,-90.63197471, 15T,4,5,-1, Flow banding,45.90013885,327.2156677,237.2156677,-2.12169719, Kallander Creek basalts, Tue Jul 19 16:21:26 2016, ,yes,,,LF
 Locality 1,682128.614,5138054.307,46.37153819,-90.63196817, 15T,8,5,-1, Flow banding,46.82982254,337.8963013,247.8963013,-2.12169719, Kallander Creek basalts, Tue Jul 19 16:21:08 2016, ,yes,,,LF
 Locality 1,682128.8561,5138052.468,46.3715216,-90.63196574, 15T,6,5,-1, Flow banding,60.19171143,337.9623718,247.9623718,-2.12169719, Kallander Creek basalts, Tue Jul 19 16:20:47 2016, ,yes,,,LF
 Locality 1,682698.7224,5138079.485,46.37161091,-90.62455229, 15T,4,10,-1, Flow banding,43.15011597,337.7840576,247.7840576,-2.02426147, Kallander Creek Volcanics, Sat Aug  6 09:56:16 2016, ,yes,,,NSH
 Locality 1,681495.4572,5138551.788,46.37618172,-90.64000055, 15T,12,10,-1, Bedding,85.58333588,286.3233032,196.3233032,-2.02426147, Nonesuch, Sat Aug  6 09:06:05 2016, Finely laminated grey siltstone. ,yes,,,NSH
 Locality 1,681464.8069,5138550.44,46.37617783,-90.64039928, 15T,12,10,-1, Bedding,86.51017761,298.6841126,208.6841126,-2.02426147, Nonesuch, Sat Aug  6 09:02:36 2016, ,yes,,,NSH
 Locality 1,681469.3628,5138551.704,46.37618797,-90.6403396, 15T,12,10,-1, Bedding,82.51895905,295.1686096,205.1686096,-2.02426147, Nonesuch, Sat Aug  6 09:02:21 2016, ,yes,,,NSH
 Locality 1,681466.0301,5138546.203,46.3761394,-90.64038503, 15T,12,10,-1, Bedding,84.62483215,290.0900879,200.0900879,-2.02426147, Nonesuch, Sat Aug  6 09:01:54 2016, ,yes,,,NSH
 Locality 1,681477.9187,5138564.646,46.37630205,-90.64022343, 15T,8,10,-1, Bedding,84.50621033,289.5730286,199.5730286,-2.02426147, Freda, Sat Aug  6 08:59:45 2016, ,yes,,,NSH
 Locality 1,681477.9187,5138564.646,46.37630205,-90.64022343, 15T,8,10,-1, Bedding,83.82441711,301.2228394,211.2228394,-2.02426147, Freda, Sat Aug  6 08:59:32 2016, ,yes,,,NSH
 Locality 1,681484.5176,5138542.192,46.37609837,-90.6401464, 15T,12,10,-1, Bedding,85.15699005,295.7246094,205.7246094,-2.02426147, Freda, Sat Aug  6 08:59:19 2016, ,yes,,,NSH
 Locality 1,681451.3268,5138554.638,46.37621919,-90.64057278, 15T,12,10,-1, Fault,53.34289551,34.27581406,304.2758179,-2.02426147, Freda, Sat Aug  6 08:57:56 2016, ,yes,,,NSH
 Locality 1,681445.6212,5138541.954,46.37610666,-90.64065183, 15T,6,10,-1, Bedding,80.38227081,297.0783081,207.0783081,-2.02426147, Freda, Sat Aug  6 08:56:17 2016, ,yes,,,NSH
 Locality 1,681425.8048,5138565.212,46.37632112,-90.64090027, 15T,8,10,-1, Bedding,84.22853088,297.1217346,207.1217346,-2.02426147, Freda, Sat Aug  6 08:55:54 2016, ,yes,,,NSH
 Locality 1,681425.8048,5138565.212,46.37632112,-90.64090027, 15T,8,10,-1, Bedding,78.61795807,289.907135,199.907135,-2.02426147, Freda, Sat Aug  6 08:55:43 2016, ,yes,,,NSH
 Locality 1,681408.0674,5138562.679,46.37630309,-90.64113169, 15T,6,5,-1, Bedding,83.10622406,300.6037598,210.6037598,-2.02426147, Freda, Sat Aug  6 08:52:44 2016, ,yes,,,NSH
 Locality 1,681408.0674,5138562.679,46.37630309,-90.64113169, 15T,6,5,-1, Bedding,87.29666901,306.8144226,216.8144226,-2.02426147, Freda, Sat Aug  6 08:52:31 2016, ,yes,,,NSH
 Locality 1,681376.5315,5138555.549,46.37624744,-90.64154416, 15T,8,10,-1, Bedding,74.06929779,286.46875,196.46875,-2.02426147, Freda, Sat Aug  6 08:51:22 2016, ,yes,,,NSH
 Locality 1,681376.7908,5138555.291,46.37624505,-90.64154089, 15T,8,5,-1, Bedding,77.20175934,288.4989319,198.4989319,-2.02426147, Freda, Sat Aug  6 08:51:12 2016, ,yes,,,NSH
 Locality 1,681491.8114,5138483.903,46.37557228,-90.64007423, 15T,6,10,-1, Fault,70.09262848,213.2897797,123.2897797,-2.02426147, Copper Harbor Conglomerate , Sat Aug  6 08:46:09 2016, ,yes,,,NSH
 Locality 1,681492.9566,5138487.256,46.37560212,-90.64005805, 15T,8,10,-1, Fault,86.37472534,166.4997711,76.49977112,-2.02426147, Copper Harbor Conglomerate , Sat Aug  6 08:44:38 2016, Negligible offset,yes,,,NSH
 Locality 1,681603.4702,5138533.442,46.37598777,-90.63860438, 15T,4,5,-1, Bedding,88.37515259,311.5348511,221.5348511,-2.02426147, Copper Harbor Conglomerate , Sat Aug  6 08:36:40 2016, Sandstone,yes,,,NSH
 Locality 1,681602.1885,5138536.829,46.37601857,-90.63861972, 15T,6,5,-1, Bedding,85.40924072,292.9258118,202.9258118,-2.02426147, Copper Harbor Conglomerate , Sat Aug  6 08:36:15 2016, Sandstone,yes,,,NSH
 Locality 1,681631.7846,5138506.5,46.3757379,-90.63824697, 15T,8,10,-1, Bedding,89,321.8909607,231.8909607,-2.02426147, Copper Harbor Conglomerate , Sat Aug  6 08:21:44 2016, Siltstone ,yes,,,NSH
 Locality 1,681610.7686,5138519.775,46.37586292,-90.63851486, 15T,8,5,-1, Fault,48.12221527,232.5393829,142.5393829,-2.02426147, Copper Harbor Conglomerate , Sat Aug  6 07:47:23 2016, Negligible offset,yes,,,NSH
 Locality 1,681583.3349,5138515.922,46.37583564,-90.63887277, 15T,8,5,-1, Bedding,81.31437683,300.2770386,210.2770386,-2.02426147, Copper Harbor Conglomerate , Sat Aug  6 07:44:16 2016, Sandstone interbed within CHC,yes,,,NSH
 Locality 1,681637.1517,5138484.265,46.37553653,-90.63818587, 15T,6,10,-1, Fault,69.95176697,6.83581209,276.8358154,-2.02426147, Kallander Creek Volcanics, Sat Aug  6 07:39:54 2016, Negligible offset strike slip fault in rhyolite  ,yes,,,NSH
 Locality 1,681627.6873,5138490.093,46.37559147,-90.63830657, 15T,8,10,-1, Fault,40.1861763,97.42694855,7.42694855,-2.02426147, Copper Harbor Conglomerate , Sat Aug  6 07:36:10 2016, Small normal fault within conglomerate ,yes,,,NSH
 Locality 1,681633.1463,5138468.02,46.37539152,-90.63824421, 15T,8,10,-1, Flow banding,88.19485474,303.4871216,213.4871216,-2.02426147, Kallander Creek Volcanics, Sat Aug  6 07:31:06 2016, Flow banding near top of rhyolite ,yes,,,NSH
 Locality 1,681649.5474,5138489.604,46.3755812,-90.63802276, 15T,8,10,-1, Flow banding,76.37030792,311.4963074,221.4963074,-2.02426147, Kallander Creek Volcanics, Sat Aug  6 07:30:11 2016, Flow banding near top of rhyolite ,yes,,,NSH
 Locality 1,681652.6493,5138495.485,46.37563325,-90.63798018, 15T,12,30,-1, Flow banding,84.08937073,302.208252,212.208252,-2.02426147, Kallander Creek Volcanics, Sat Aug  6 07:30:01 2016, Flow banding near top of rhyolite,yes,,,NSH
 Locality 1,681672.8799,5139728.62,46.38671627,-90.6372388, 15T,6,5,-1, Clast lamination,78.14221191,311.8053589,221.8053589,-2.02426147, Freda, Thu Aug  4 15:08:30 2016, ,yes,,,NSH
 Locality 1,681675.7807,5139729.979,46.38672771,-90.63720058, 15T,6,5,-1, Clast lamination,82.71826935,326.1849976,236.1849976,-2.02426147, Freda, Thu Aug  4 14:36:42 2016, Clast 1. Strike is well-constrained. Dip is not. ,yes,,,NSH
 Locality 1,681670.0321,5139730.021,46.38672964,-90.63727526, 15T,8,5,-1, Bedding,78.12709045,302.7519226,212.7519226,-2.02426147, Freda, Thu Aug  4 14:30:52 2016, ,yes,,,NSH
 Locality 1,681669.7846,5139731.179,46.38674011,-90.63727803, 15T,8,5,-1, Bedding,75.77996826,296.7697144,206.7697144,-2.02426147, Freda, Thu Aug  4 14:30:35 2016, ,yes,,,NSH
 Locality 1,681668.9581,5139730.129,46.38673089,-90.63728917, 15T,6,5,-1, Bedding,75.38552856,298.1912231,208.1912231,-2.02426147, Freda, Thu Aug  4 14:30:26 2016, ,yes,,,NSH
 Locality 1,681931.7292,5139567.565,46.38519847,-90.63393784, 15T,6,5,-1, Bedding,76.23464966,290.7094116,200.7094116,-2.02426147, Freda, Thu Aug  4 14:30:06 2016, ,yes,,,NSH
 Locality 1,681931.7292,5139567.565,46.38519847,-90.63393784, 15T,6,5,-1, Bedding,75.32308197,285.5774231,195.5774231,-2.02426147, Freda, Thu Aug  4 14:29:54 2016, ,yes,,,NSH
 Locality 1,681931.0592,5139567.75,46.38520032,-90.63394647, 15T,6,5,-1, Bedding,72.45835114,309.2797241,219.2797241,-2.02426147, Freda, Thu Aug  4 08:48:12 2016, ,yes,,,NSH
 Locality 1,681933.084,5139566.049,46.38518448,-90.63392082, 15T,6,10,-1, Bedding,72.22608185,304.8726502,214.8726502,-2.02426147, Freda, Thu Aug  4 08:47:43 2016, ,yes,,,NSH
 Locality 1,681933.084,5139566.049,46.38518448,-90.63392082, 15T,6,10,-1, Bedding,66.85353088,296.5146484,206.5146484,-2.02426147, Freda, Thu Aug  4 08:47:33 2016, ,yes,,,NSH
 Locality 1,681942.6538,5139572.184,46.38523707,-90.63379409, 15T,6,5,-1, Bedding,72.20835114,302.7701111,212.7701111,-2.02426147, Freda, Thu Aug  4 08:47:13 2016, ,yes,,,NSH
 Locality 1,681941.3505,5139570.468,46.38522198,-90.63381169, 15T,6,10,-1, Bedding,73.86043549,300.3565064,210.3565064,-2.02426147, Freda, Thu Aug  4 08:47:00 2016, ,yes,,,NSH
 Locality 1,681941.7691,5139571.137,46.38522789,-90.63380599, 15T,6,5,-1, Bedding,70.26729584,302.7295837,212.7295837,-2.02426147, Freda, Thu Aug  4 08:46:48 2016, ,yes,,,NSH
 Locality 1,681948.8093,5139573.641,46.38524851,-90.63371354, 15T,6,5,-1, Bedding,74.10037994,301.9992981,211.9992981,-2.02426147, Freda, Thu Aug  4 08:45:52 2016, ,yes,,,NSH
 Locality 1,681940.5512,5139566.999,46.38519101,-90.63382342, 15T,6,5,-1, Bedding,72.85458374,294.8303528,204.8303528,-2.02426147, Freda, Thu Aug  4 08:44:48 2016, ,yes,,,NSH
 Locality 1,681940.5512,5139566.999,46.38519101,-90.63382342, 15T,6,5,-1, Bedding,77.4260025,292.7651978,202.7651978,-2.02426147, Freda, Thu Aug  4 08:44:40 2016, ,yes,,,NSH
 Locality 1,681973.8239,5138139.338,46.37234445,-90.63394597, 15T,6,10,-1, Flow banding,56.34255981,330.2710266,240.2710266,-2.02426147, Kallander Creek Volcanics, Wed Aug  3 10:21:53 2016, ,yes,,,NSH
 Locality 1,681973.583,5138131.86,46.37227727,-90.633952, 15T,4,5,-1, Flow banding,57.76648331,330.3995056,240.3995056,-2.02426147, Kallander Creek Volcanics, Wed Aug  3 10:21:43 2016, ,yes,,,NSH
 Locality 1,681973.583,5138131.86,46.37227727,-90.633952, 15T,4,5,-1, Flow banding,60.13439941,324.6892395,234.6892395,-2.02426147, Kallander Creek Volcanics, Wed Aug  3 10:21:37 2016, ,yes,,,NSH
 Locality 1,681973.583,5138131.86,46.37227727,-90.633952, 15T,4,5,-1, Flow banding,58.33440018,334.1400452,244.1400452,-2.02426147, Kallander Creek Volcanics, Wed Aug  3 10:21:26 2016, ,yes,,,NSH
 Locality 1,681974.1659,5138130.922,46.37226867,-90.63394479, 15T,6,5,-1, Bedding,55.94387436,320.381012,230.381012,-2.02426147, Kallander Creek Volcanics, Wed Aug  3 10:20:39 2016, Flow top,yes,,,NSH
 Locality 1,681975.3403,5138133.94,46.3722955,-90.63392837, 15T,4,5,-1, Bedding,55.24079514,326.2252502,236.2252502,-2.02426147, Kallander Creek Volcanics, Wed Aug  3 10:19:29 2016, Flow top,yes,,,NSH
 Locality 1,681976.165,5138136.136,46.37231503,-90.6339168, 15T,4,5,-1, Bedding,56.03073883,316.9345398,226.9345398,-2.02426147, Kallander Creek Volcanics, Wed Aug  3 10:19:05 2016, ,yes,,,NSH
 Locality 1,681977.5405,5138134.803,46.37230266,-90.63389945, 15T,4,5,-1, Bedding,55.01271057,322.1247864,232.1247864,-2.02426147, Kallander Creek Volcanics, Wed Aug  3 10:18:36 2016, Flow top,yes,,,NSH
 Locality 1,681962.2155,5138167.202,46.37259813,-90.63408595, 15T,0,-1,-1, Bedding,58.77735138,313.5143127,223.5143127,-2.02426147, Kallander Creek Volcanics, Wed Aug  3 09:24:54 2016, Flow top,yes,,,NSH
 Locality 1,681962.0884,5138161.526,46.37254712,-90.6340898, 15T,0,-1,-1, Bedding,59.38869476,321.8456421,231.8456421,-2.02426147, Kallander Creek Volcanics, Wed Aug  3 09:23:56 2016, Flow top,yes,,,NSH
 Locality 1,681962.0884,5138161.526,46.37254712,-90.6340898, 15T,0,-1,-1, Bedding,60.49594116,335.5808411,245.5808411,-2.02426147, Kallander Creek Volcanics, Wed Aug  3 09:23:40 2016, Flow top,yes,,,NSH
 Locality 1,681962.0884,5138161.526,46.37254712,-90.6340898, 15T,0,-1,-1, Bedding,64.29599762,330.6566162,240.6566162,-2.02426147, Kallander Creek Volcanics, Wed Aug  3 09:23:28 2016, Flow top,yes,,,NSH
 Locality 1,681962.0884,5138161.526,46.37254712,-90.6340898, 15T,0,-1,-1, Bedding,59.12026215,320.5576477,230.5576477,-2.02426147, Kallander Creek Volcanics, Wed Aug  3 09:23:08 2016, Flow top,yes,,,NSH
 Locality 1,681966.7666,5138143.825,46.37238669,-90.63403591, 15T,0,-1,-1, Flow banding,63.79289246,327.1622315,237.1622315,-2.02426147, Kallander Creek Volcanics, Wed Aug  3 09:22:35 2016, ,yes,,,NSH
 Locality 1,681965.9387,5138149.286,46.37243602,-90.63404454, 15T,0,-1,-1, Flow banding,57.81369019,333.8028259,243.8028259,-2.02426147, Kallander Creek Volcanics, Wed Aug  3 09:22:25 2016, ,yes,,,NSH
 Locality 1,681962.8417,5138153.383,46.3724737,-90.63408318, 15T,0,-1,-1, Flow banding,57.2748642,328.2199402,238.2199402,-2.02426147, Kallander Creek Volcanics, Wed Aug  3 09:22:10 2016, ,yes,,,NSH
 Locality 1,681962.8417,5138153.383,46.3724737,-90.63408318, 15T,0,-1,-1, Flow banding,46.0270195,338.0305176,248.0305176,-2.02426147, Kallander Creek Volcanics, Wed Aug  3 09:21:54 2016, ,yes,,,NSH
 Locality 1,681963.2574,5138158.686,46.37252126,-90.63407572, 15T,0,-1,-1, Flow banding,61.83362579,336.7888489,246.7888489,-2.02426147, Kallander Creek Volcanics, Wed Aug  3 09:21:47 2016, ,yes,,,NSH
 Locality 1,681962.0884,5138161.526,46.37254712,-90.6340898, 15T,0,-1,-1, Flow banding,53.03591537,333.883606,243.883606,-2.02426147, Kallander Creek Volcanics, Wed Aug  3 09:21:38 2016, ,yes,,,NSH
 Locality 1,681773.4625,5138471.801,46.37538783,-90.6364198, 15T,12,10,-1, Bedding,73.32738495,329.4390869,239.4390869,-2.02426147, Kallander Creek Volcanics, Mon Aug  1 09:27:04 2016, ,yes,,,NSH
 Locality 1,681767.1383,5138462.132,46.37530259,-90.63650572, 15T,12,5,-1, Bedding,69.32164001,326.3944397,236.3944397,-2.02426147, Kallander Creek Volcanics, Mon Aug  1 09:26:21 2016, Thick interflow siltstone ,yes,,,NSH
 Locality 1,681483.1312,5142739.44,46.41384069,-90.63853607, 15T,16,10,-1, Bedding,72.99668884,308.2397156,218.2397156,-2.02426147, Freda, Wed Jul 20 16:26:11 2016, ,yes,,,NSH
 Locality 1,681526.4212,5142726.597,46.41371358,-90.63797825, 15T,6,5,-1, Bedding,72.27500916,309.9975586,219.9975586,-2.02426147, Freda, Wed Jul 20 16:23:41 2016, ,yes,,,NSH
 Locality 1,681554.691,5142743.256,46.41385578,-90.63760425, 15T,12,5,-1, Bedding,67.45671844,304.0860291,214.0860291,-2.02426147, Freda, Wed Jul 20 16:21:16 2016, ,yes,,,NSH
 Locality 1,681770.5411,5138460.313,46.37528532,-90.63646222, 15T,6,10,-1, Bedding,67.74814606,333.3019714,243.3019714,-2.02426147, Kallander Creek Volcanics, Wed Jul 20 13:51:29 2016, ,yes,,,NSH
 Locality 1,681770.5411,5138460.313,46.37528532,-90.63646222, 15T,6,10,-1, Bedding,70.48312378,332.7958679,242.7958679,-2.02426147, Kallander Creek Volcanics, Wed Jul 20 13:51:12 2016, ,yes,,,NSH
 Locality 1,681777.7022,5138455.144,46.37523692,-90.63637119, 15T,6,5,-1, Bedding,74.42312622,332.3395386,242.3395386,-2.02426147, Kallander Creek Volcanics, Wed Jul 20 13:50:06 2016, ,yes,,,NSH
 Locality 1,681756.5523,5138436.82,46.37507783,-90.63665307, 15T,6,5,-1, Bedding,70.81891632,347.4789124,257.4789124,-2.02426147, Kallander Creek Volcanics, Wed Jul 20 13:48:01 2016, ,yes,,,NSH
 Locality 1,681756.5523,5138436.82,46.37507783,-90.63665307, 15T,6,5,-1, Bedding,69.19145203,327.6959839,237.6959839,-2.02426147, Kallander Creek Volcanics, Wed Jul 20 13:39:04 2016, Sandstone interbed,yes,,,NSH
 Locality 1,681778.9382,5138472.943,46.37539663,-90.63634822, 15T,6,10,-1, Bedding,69.16856384,331.8228149,241.8228149,-2.02426147, Kallander Creek Volcanics, Wed Jul 20 13:23:36 2016, ,yes,,,NSH
 Locality 1,681760.0588,5138452.263,46.37521575,-90.63660152, 15T,6,10,-1, Bedding,66.42572021,346.6538391,256.6538391,-2.02426147, Kallander Creek Volcanics, Wed Jul 20 13:21:44 2016, ,yes,,,NSH
 Locality 1,681191.4172,5140301.746,46.39199905,-90.64327318, 15T,12,10,-1, Bedding,76.4127655,287.5107117,197.5107117,-2.02426147, Freda, Wed Jul 20 11:47:39 2016, Stratigraphically highest exposure on oxbow of river ,yes,,,NSH
 Locality 1,681453.1139,5139847.091,46.38784057,-90.64004858, 15T,6,10,-1, Bedding,72.77021027,293.1796265,203.1796265,-2.02426147, Freda, Wed Jul 20 10:51:53 2016, ,yes,,,NSH
 Locality 1,681518.5143,5139780.503,46.38722425,-90.63922456, 15T,6,10,-1, Bedding,73.55464172,295.0937805,205.0937805,-2.02426147, Freda, Wed Jul 20 10:45:21 2016, Incredible exposure of interbedded cross-bedded sandstone and siltstone to very fine sandstone continues,yes,,,NSH
 Locality 1,681610.9975,5139788.997,46.3872758,-90.63801949, 15T,8,10,-1, Bedding,74.13057709,300.004303,210.004303,-2.02426147, Freda, Wed Jul 20 10:36:33 2016, ,yes,,,NSH
 Locality 1,681648.2445,5139662.792,46.38613096,-90.63758447, 15T,4,5,-1, Bedding,74.96756744,303.3612061,213.3612061,-2.02426147, Freda, Wed Jul 20 10:10:36 2016, ,yes,,,NSH
 Locality 1,681679.0117,5139744.468,46.38685713,-90.63715297, 15T,12,30,-1, Bedding,75.13057709,293.7450562,203.7450562,-2.02426147, Freda, Wed Jul 20 09:56:12 2016, ,yes,,,NSH
 Locality 1,681706.1212,5139568.785,46.3852701,-90.63686891, 15T,4,5,-1, Bedding,75.47118378,300.9915466,210.9915466,-2.02426147, Freda, Wed Jul 20 09:47:23 2016, ,yes,,,NSH
 Locality 1,681959.1193,5139571.204,46.38522383,-90.63358052, 15T,6,5,-1, Bedding,74.54710388,296.9143982,206.9143982,-2.02426147, Freda, Wed Jul 20 09:33:09 2016, ,yes,,,NSH
 Locality 1,681945.9675,5139572.465,46.38523871,-90.63375092, 15T,6,5,-1, Bedding,69.89874268,301.5521545,211.5521545,-2.02426147, Freda, Wed Jul 20 09:31:42 2016, ,yes,,,NSH
 Locality 1,681945.9675,5139572.465,46.38523871,-90.63375092, 15T,6,5,-1, Bedding,69.46185303,315.8876038,225.8876038,-2.02426147, Freda, Wed Jul 20 09:31:17 2016, ,yes,,,NSH
 Locality 1,681937.1947,5139574.617,46.38526042,-90.63386408, 15T,6,5,-1, Bedding,68.02501678,297.9778442,207.9778442,-2.02426147, Freda, Wed Jul 20 09:27:21 2016, ,yes,,,NSH
 Locality 1,681937.1947,5139574.617,46.38526042,-90.63386408, 15T,32.83341595,9102.311085,-1, Bedding,63.56770325,297.230072,207.230072,-2.02426147, Freda, Wed Jul 20 09:27:04 2016, ,yes,,,NSH
 Locality 1,681937.1947,5139574.617,46.38526042,-90.63386408, 15T,32.83341595,9102.311085,-1, Bedding,70.29199219,301.8460693,211.8460693,-2.02426147, Freda, Wed Jul 20 09:26:58 2016, ,yes,,,NSH
 Locality 1,681663.9822,5139720.501,46.38664565,-90.63735757, 15T,0,-1,-1, Bedding,73.9467392,294.8325501,204.8325501,-2.12359619, Freda, Fri Aug  5 08:31:28 2016, ,yes,,,OA
 Locality 1,681663.9822,5139720.501,46.38664565,-90.63735757, 15T,0,-1,-1, Bedding,73.06065369,305.071106,215.071106,-2.12359619, Freda, Fri Aug  5 08:31:14 2016, ,yes,,,OA
 Locality 1,681663.9822,5139720.501,46.38664565,-90.63735757, 15T,0,-1,-1, Bedding,75.86165619,258.3237305,168.3237305,-2.12359619, Freda, Fri Aug  5 08:30:40 2016, ,yes,,,OA
 Locality 1,681663.9822,5139720.501,46.38664565,-90.63735757, 15T,0,-1,-1, Bedding,75.05418396,262.5340881,172.5340881,-2.12359619, Freda, Fri Aug  5 08:29:13 2016, ,yes,,,OA
 Locality 1,681663.9822,5139720.501,46.38664565,-90.63735757, 15T,0,-1,-1, Bedding,76.08422852,307.6360474,217.6360474,-2.12359619, Freda, Fri Aug  5 08:28:34 2016, ,yes,,,OA
 Locality 1,681663.9822,5139720.501,46.38664565,-90.63735757, 15T,0,-1,-1, Bedding,76.39537048,341.0269775,251.0269775,-2.12359619, Freda, Fri Aug  5 08:28:08 2016, ,yes,,,OA
 Locality 1,681663.9822,5139720.501,46.38664565,-90.63735757, 15T,0,-1,-1, Bedding,73.72008514,326.5829773,236.5829773,-2.12359619, Freda, Fri Aug  5 08:27:12 2016, ,yes,,,OA
 Locality 1,681663.9822,5139720.501,46.38664565,-90.63735757, 15T,0,-1,-1, Bedding,75.1823349,301.0393372,211.0393372,-2.12359619, Freda, Thu Aug  4 15:04:17 2016, ,yes,,,OA
 Locality 1,681765.7191,5138465.366,46.37533205,-90.6365229, 15T,0,-1,-1, Bedding,73.56092834,45.51210785,315.5121155,-2.12359619, Freda, Thu Aug  4 15:03:23 2016, ,yes,,,OA
 Locality 1,681765.7191,5138465.366,46.37533205,-90.6365229, 15T,0,-1,-1, Bedding,77.71855164,304.8872376,214.8872376,-2.12359619, Freda, Thu Aug  4 14:44:34 2016, ,yes,,,OA
 Locality 1,681765.7191,5138465.366,46.37533205,-90.6365229, 15T,0,-1,-1, Bedding,78.62488556,296.6245422,206.6245422,-2.12359619, Freda, Thu Aug  4 14:44:16 2016, ,yes,,,OA
 Locality 1,681765.7191,5138465.366,46.37533205,-90.6365229, 15T,0,-1,-1, Bedding,69.72146606,290.1520996,200.1520996,-2.12359619, Freda, Thu Aug  4 14:43:58 2016, ,yes,,,OA
 Locality 1,681766.7285,5138460.95,46.37529207,-90.6365115, 15T,12,5,-1, Bedding,64.67811584,344.2137146,254.2137146,-2.12359619, Inter flow sediments, Mon Aug  1 09:41:26 2016, ,yes,,,OA
 Locality 1,681768.6118,5138455.138,46.37523931,-90.63648929, 15T,12,10,-1, Bedding,67.62808228,351.2676697,261.2676697,-2.12359619, Inter flow sediments, Mon Aug  1 09:41:13 2016, ,yes,,,OA
 Copper Falls State Park,681800.8536,5138388.349,46.37463007,-90.63609635, 15T,6,5,-1, Bedding,62.9899826,354.1038818,264.1038818,-4.31774902, Kallander Creek inter flow sediment, Tue Jul 19 11:09:27 2016, ,,,,LF
 Copper Falls State Park,681805.0405,5138390.52,46.37464846,-90.63604111, 15T,6,5,-1, Bedding,63.58736801,359.5492249,269.5492249,-4.31774902, Kallander Creek inter flow sediment, Tue Jul 19 11:09:08 2016, ,,,,LF
 Copper Falls State Park,681802.6955,5138393.428,46.37467525,-90.63607045, 15T,8,5,-1, Bedding,57.57659912,350.7185669,260.7185669,-4.31774902, Kallander Creek inter flow sediment, Tue Jul 19 11:08:43 2016, ,,,,LF
 Copper Falls State Park,681977.4557,5138131.165,46.37226997,-90.63390196, 15T,6,5,-1, Bedding,62.13697815,331.2608643,241.2608643,-4.31774902, Kallander Creek basalts, Tue Jul 19 10:31:38 2016, ,,,,LF
 Copper Falls State Park,682125.6184,5138057.596,46.37156858,-90.63200581, 15T,6,5,-1, Bedding,54.20893478,320.5734253,230.5734253,-4.31774902, Kallander Creek basalts, Tue Jul 19 09:40:22 2016, ,,,,LF
 Copper Falls State Park,682125.0709,5138058.428,46.3715762,-90.6320126, 15T,8,5,-1, Bedding,53.40875244,315.7460022,225.7460022,-4.31774902, Kallander Creek basalts, Tue Jul 19 09:40:14 2016, ,,,,LF
,,,,,,,,, Bedding,79,304,214,-2.12359619,Freda,4-Aug,,no,,,LF
,,,,,,,,, Bedding,66,301,211,-2.12359619,Freda,4-Aug,,no,,,LF
,,,,,,,,, Bedding,68,300,210,-2.12359619,Freda,4-Aug,,no,,,LF
,,,,,,,,, Bedding,76,300,210,-2.12359619,Freda,4-Aug,,no,,,LF
,,,,,,,,, Bedding,72,309,219,-2.12359619,Freda,4-Aug,,yes,,,NSH
,,,,,,,,, Bedding,72,304,214,-2.12359619,Freda,4-Aug,,yes,,,NSH
,,,,,,,,, Bedding,66,296,206,-2.12359619,Freda,4-Aug,,yes,,,NSH
,,,,,,,,, Bedding,72,302,212,-2.12359619,Freda,4-Aug,,yes,,,NSH
,,,,,,,,, Bedding,73,300,210,-2.12359619,Freda,4-Aug,,yes,,,NSH
,,,,,,,,, Bedding,70,302,212,-2.12359619,Freda,4-Aug,,yes,,,NSH
,,,,,,,,, Bedding,74,301,211,-2.12359619,Freda,4-Aug,,yes,,,NSH
,,,,,,,,, Bedding,77,292,202,-2.12359619,Freda,4-Aug,,yes,,,NSH
,,,,,,,,, Bedding,70,301,211,-2.12359619,Freda,20-Jul,,yes,,,NSH
,,,,,,,,, Bedding,63,297,207,-2.12359619,Freda,20-Jul,,yes,,,NSH
,,,,,,,,, Bedding,68,297,207,-2.12359619,Freda,20-Jul,,yes,,,NSH
,,,,,,,,, Bedding,69,315,225,-2.12359619,Freda,20-Jul,,yes,,,NSH
,,,,,,,,, Bedding,69,301,211,-2.12359619,Freda,20-Jul,,yes,,,NSH