localityId,localityName,dataId,x,y,latitude,longitude,zone,altitude,horiz_precision,vert_precision,planeType,dip,dipAzimuth,strike,declination,rockUnit,timedate,notes,dec_corrected,strike_corr,dipAzimuth_corr,measurer
c501376c4de00b49ca3fcd58569691a3, Locality 1, 868087e7d466e2d1c2f8fa0624bd8969,334376.1468,5173262.881,46.692414,-89.166158, 16T,230.190308,5,3, Bedding,6,267,177,-2.334, Jacobsville, Fri Aug 10 17:37:32 2018, ,yes,,,NSH
c501376c4de00b49ca3fcd58569691a3, Locality 1, e5c7ac30b00b107c20b1a8faa8afe604,689689.1818,5148268.93,46.461304,-90.52961, 15T,286.011719,5,6, Bedding,82,308,218,-2.334, Nonesuch Formation, Tue Aug  7 17:17:38 2018, ,yes,,,NSH
c501376c4de00b49ca3fcd58569691a3, Locality 1, 817a850df9caa20b751ca25bd4cd3c81,689690.7603,5148268.719,46.461302,-90.52959, 15T,284.837708,5,6, Bedding,80,312,222,-2.334, Nonesuch Formation, Tue Aug  7 17:17:09 2018, ,yes,,,NSH
c501376c4de00b49ca3fcd58569691a3, Locality 1, 43c538f3cffd8df9042dc4dd116fd287,689699.3353,5148275.708,46.461362,-90.529475, 15T,274.238281,5,6, Bedding,83,315,225,-2.334, Nonesuch Formation, Tue Aug  7 17:12:04 2018, ,yes,,,NSH
c501376c4de00b49ca3fcd58569691a3, Locality 1, 50730b28d61398697fee41e65f94ede4,689698.7153,5148270.608,46.461316,-90.529485, 15T,281.898682,5,6, Bedding,81,315,225,-2.334, Nonesuch Formation, Tue Aug  7 17:11:17 2018, ,yes,,,NSH
c501376c4de00b49ca3fcd58569691a3, Locality 1, 314387b08e7c110329689bc2ebe089d0,689699.2063,5148272.828,46.461336,-90.529478, 15T,283.093323,5,6, Bedding,80,318,228,-2.334, Nonesuch Formation, Tue Aug  7 17:11:01 2018, ,yes,,,NSH
c501376c4de00b49ca3fcd58569691a3, Locality 1, 7d82f265a1b78cdd3f3a9b0691634d06,689697.5331,5148270.301,46.461314,-90.529501, 15T,282.503906,5,4, Bedding,81,313,223,-2.334, Nonesuch Formation, Tue Aug  7 17:10:33 2018, ,yes,,,NSH
c501376c4de00b49ca3fcd58569691a3, Locality 1, 26e8482aae7db3f0e626e78835c36b34,689698.0353,5148271.547,46.461325,-90.529494, 15T,283.169189,5,4, Bedding,80,316,226,-2.334, Nonesuch Formation, Tue Aug  7 17:09:47 2018, ,yes,,,NSH
c501376c4de00b49ca3fcd58569691a3, Locality 1, 02ac8036394edb94c8d689abb3c1e322,689686.7363,5148269.264,46.461308,-90.529642, 15T,293.450867,5,6, Bedding,83,311,221,-2.334, Nonesuch Formation, Tue Aug  7 17:09:06 2018, ,yes,,,NSH
c501376c4de00b49ca3fcd58569691a3, Locality 1, c0def7aae7a0adc86d4b2b65133a8e3a,689659.0882,5148326.072,46.461826,-90.529979, 15T,273.93457,10,6, Bedding,80,305,215,-2.334, Nonesuch Formation, Tue Aug  7 15:06:58 2018, Uppermost grey sandstone in PRF18 section,yes,,,NSH
c501376c4de00b49ca3fcd58569691a3, Locality 1, 484688f8722e2d5aa3d3635c444640f1,689655.9872,5148336.448,46.46192,-90.530015, 15T,270.997864,10,8, Bedding,79,309,219,-2.334, Freda Formation, Tue Aug  7 15:05:59 2018, ,yes,,,NSH
c501376c4de00b49ca3fcd58569691a3, Locality 1, 7d964f40b86e6735faf1f0e9895053ac,689676.0294,5148263.084,46.461255,-90.529784, 15T,294.213989,10,12, Bedding,80,311,221,-2.334, Nonesuch Formation, Tue Aug  7 11:50:32 2018, ,yes,,,NSH
c501376c4de00b49ca3fcd58569691a3, Locality 1, 4221a135dcf69a04b973bb2322a95add,689661.451,5148269.671,46.461319,-90.529971, 15T,294.649841,5,6, Bedding,83,309,219,-2.334, Nonesuch Formation, Tue Aug  7 11:48:57 2018, ,yes,,,NSH
c501376c4de00b49ca3fcd58569691a3, Locality 1, 346676b9ea679a2fad050ed551d69060,689660.8261,5148267.61,46.4613,-90.52998, 15T,297.800476,5,4, Bedding,81,308,218,-2.334, Nonesuch Formation, Tue Aug  7 11:48:42 2018, ,yes,,,NSH
c501376c4de00b49ca3fcd58569691a3, Locality 1, f45d96150653c3476eb3b0139e8c55d3,689667.8329,5148258.619,46.461217,-90.529892, 15T,302.675049,10,8, Bedding,79,310,220,-2.334, Nonesuch Formation, Tue Aug  7 11:48:08 2018, ,yes,,,NSH
c501376c4de00b49ca3fcd58569691a3, Locality 1, 759d3131688fd2bc105b9748f2083e8e,689671.7207,5148249.66,46.461136,-90.529845, 15T,316.458923,5,8, Bedding,82,313,223,-2.334, Nonesuch Formation, Tue Aug  7 11:47:13 2018, ,yes,,,NSH
c501376c4de00b49ca3fcd58569691a3, Locality 1, fa05f0d0f0dc553ba82ed1815f209f82,689669.4684,5148254.936,46.461184,-90.529872, 15T,313.705811,10,12, Bedding,83,307,217,-2.334, Nonesuch Formation, Tue Aug  7 11:46:02 2018, ,yes,,,NSH
c501376c4de00b49ca3fcd58569691a3, Locality 1, 617fe7cc94321f66aaf126b61480d60a,689668.0784,5148256.123,46.461195,-90.52989, 15T,310.067688,5,6, Bedding,83,299,209,-2.334, Nonesuch Formation, Tue Aug  7 11:45:36 2018, ,yes,,,NSH
c501376c4de00b49ca3fcd58569691a3, Locality 1, 45f6a05cfd04987cf9609bca3981f6cd,689667.7447,5148256.7,46.4612,-90.529894, 15T,310.921021,5,8, Bedding,82,308,218,-2.334, Nonesuch Formation, Tue Aug  7 11:45:01 2018, ,yes,,,NSH
c501376c4de00b49ca3fcd58569691a3, Locality 1, 0b907463acf5f21b74cb3bc44d4bf649,689667.008,5148256.98,46.461203,-90.529904, 15T,312.017822,10,8, Bedding,81,312,222,-2.334, Nonesuch Formation, Tue Aug  7 11:44:47 2018, ,yes,,,NSH
c501376c4de00b49ca3fcd58569691a3, Locality 1, e9ca53c8f033af07a71f9ed1bc69e8af,689673.9541,5148243.75,46.461082,-90.529819, 15T,311.964844,10,8, Bedding,82,307,217,-2.334, Nonesuch Formation, Tue Aug  7 11:44:06 2018, ,yes,,,NSH
c501376c4de00b49ca3fcd58569691a3, Locality 1, 57e284a64d112cca748d8251df847c45,689671.4368,5148246.584,46.461108,-90.52985, 15T,312.335022,10,8, Bedding,83,304,214,-2.334, Nonesuch Formation, Tue Aug  7 11:43:49 2018, ,yes,,,NSH
c501376c4de00b49ca3fcd58569691a3, Locality 1, 3839c9064bf8337eef9a3b30e20643ee,689668.811,5148253.093,46.461167,-90.529882, 15T,309.756531,5,6, Bedding,81,308,218,-2.334, Nonesuch Formation, Tue Aug  7 11:43:12 2018, ,yes,,,NSH
c501376c4de00b49ca3fcd58569691a3, Locality 1, 6137e84affe66d273d715985de8a6a16,689668.811,5148253.093,46.461167,-90.529882, 15T,309.756531,5,6, Bedding,79,310,220,-2.334, Nonesuch Formation, Tue Aug  7 11:43:00 2018, ,yes,,,NSH
c501376c4de00b49ca3fcd58569691a3, Locality 1, 82d1b1bace8a5f0d3e45ae56ec0cf1c7,689669.1933,5148258.377,46.461215,-90.529875, 15T,310.325684,10,12, Bedding,82,319,229,-2.334, Nonesuch Formation, Tue Aug  7 11:42:48 2018, ,yes,,,NSH
c501376c4de00b49ca3fcd58569691a3, Locality 1, 2b281db2cc6fc5c5c4b48e903b5efdd0,689704.7167,5148249.891,46.461128,-90.529416, 15T,279.903198,10,6, Bedding,80,300,210,-2.653, Nonesuch Formation, Mon Aug  6 16:01:43 2018, ,yes,,,NSH
c501376c4de00b49ca3fcd58569691a3, Locality 1, 8f0162bc0edece782998d42581624155,689703.1448,5148253.803,46.461164,-90.529435, 15T,280.587097,5,4, Bedding,84,290,200,-2.653, Nonesuch Formation, Mon Aug  6 16:01:04 2018, ,yes,,,NSH
c501376c4de00b49ca3fcd58569691a3, Locality 1, 97497c7e000d80a9b60eae08ac51a357,689705.7563,5148256.817,46.46119,-90.529399, 15T,280.59259,5,4, Bedding,83,294,204,-2.653, Nonesuch Formation, Mon Aug  6 16:00:54 2018, ,yes,,,NSH
c501376c4de00b49ca3fcd58569691a3, Locality 1, f4e875c724468c624d67ad25a00fb48d,689704.4895,5148253.859,46.461164,-90.529417, 15T,283.135132,5,4, Bedding,82,299,209,-2.653, Nonesuch Formation, Mon Aug  6 16:00:39 2018, ,yes,,,NSH
c501376c4de00b49ca3fcd58569691a3, Locality 1, 093264e970f7cf0a6af1dda736049a06,689711.3301,5148258.627,46.461205,-90.529326, 15T,284.878967,5,6, Bedding,81,317,227,-2.653, Nonesuch Formation, Mon Aug  6 15:57:41 2018, ,yes,,,NSH
c501376c4de00b49ca3fcd58569691a3, Locality 1, 0231c320a117fa3774d7104771474fa4,689710.1101,5148249.644,46.461125,-90.529346, 15T,311.136841,10,12, Bedding,81,292,202,-2.653, Nonesuch Formation, Mon Aug  6 14:14:42 2018, ,yes,,,NSH
c501376c4de00b49ca3fcd58569691a3, Locality 1, 5ab1f76fa354bd7892f2324db29a9023,689717.9463,5148227.73,46.460926,-90.529253, 15T,303.972656,10,12, Bedding,76,329,239,-2.653, Nonesuch Formation, Mon Aug  6 13:35:00 2018, ,yes,,,NSH
c501376c4de00b49ca3fcd58569691a3, Locality 1, 58061125c00b7d50d98a441e208023ef,689717.9463,5148227.73,46.460926,-90.529253, 15T,303.972656,10,12, Bedding,82,313,223,-2.653, Nonesuch Formation, Mon Aug  6 13:34:31 2018, ,yes,,,NSH
c501376c4de00b49ca3fcd58569691a3, Locality 1, e8d2601fb65d89794c9b2898e6b27cb8,689717.9463,5148227.73,46.460926,-90.529253, 15T,303.972656,10,12, Bedding,85,317,227,-2.653, Nonesuch Formation, Mon Aug  6 13:34:24 2018, ,yes,,,NSH
c501376c4de00b49ca3fcd58569691a3, Locality 1, d4ac667333c06eda3e4ecd0e5a55e4ff,689723.3923,5148247.221,46.461099,-90.529174, 15T,280.065247,5,8, Bedding,80,312,222,-2.653, Nonesuch Formation, Mon Aug  6 12:36:15 2018, Sandstone within conglomerate ,yes,,,NSH
c501376c4de00b49ca3fcd58569691a3, Locality 1, 668d70dd03710317eaa8e7d909ab48b9,689719.5553,5148227.406,46.460922,-90.529232, 15T,297.260986,10,12, Bedding,81,324,234,-2.653, Nonesuch Formation, Mon Aug  6 12:30:00 2018, ,yes,,,NSH
c501376c4de00b49ca3fcd58569691a3, Locality 1, 2b182c94a0a49b92f46b1a2b36f26f32,681180.6326,5138638.349,46.377044,-90.644057, 15T,295.58313,5,8, Overturned Bedding,87,103,13,-2.653, Freda Formation, Sun Aug  5 13:46:49 2018, ,yes,,,NSH
c501376c4de00b49ca3fcd58569691a3, Locality 1, 8c7775f7dbe6d26a0b7c5cb82bd2aa68,689476.6327,5148397.721,46.462522,-90.532323, 15T,269.472778,5,12, Bedding,81,304,214,-2.653, Freda Formation, Sun Aug  5 11:51:41 2018, Medium cross-stratified sandstone ,yes,,,NSH
c501376c4de00b49ca3fcd58569691a3, Locality 1, 47f0d43ff7e59b22edfd4f3c7464589f,302845.6634,5187624.969,46.812984,-89.584314, 16T,203.13739,10,24, Bedding,17,133,43,-2.653, Nonesuch Formation, Fri Aug  3 11:23:14 2018, ,yes,,,NSH
c501376c4de00b49ca3fcd58569691a3, Locality 1, e09431efa1859cc48f0c5a6643b01166,302813.2614,5187677.684,46.813448,-89.584761, 16T,209.993835,5,3, Bedding,16,128,38,-2.653, Nonesuch Formation, Fri Aug  3 11:13:02 2018, ,yes,,,NSH
c501376c4de00b49ca3fcd58569691a3, Locality 1, f244a77428af0adc9ef22cdb491e575f,302795.1211,5187699.474,46.813638,-89.585008, 16T,210.638,5,4, Bedding,15,132,42,-2.653, Copper Harbor Conglomerate , Fri Aug  3 11:03:50 2018, ,yes,,,NSH
c501376c4de00b49ca3fcd58569691a3, Locality 1, d9077665151ca8117005a91fae9e80d9,302781.3235,5187746.617,46.814058,-89.585209, 16T,204.947571,5,12, Bedding,16,130,40,-2.653, Copper Harbor Conglomerate , Fri Aug  3 11:01:13 2018, ,yes,,,NSH
c501376c4de00b49ca3fcd58569691a3, Locality 1, 82478b7087097c49b3251a4c549a8c49,302803.6565,5187786.869,46.814427,-89.584934, 16T,206.435303,5,3, Bedding,18,134,44,-2.653, Copper Harbor Conglomerate , Fri Aug  3 10:59:01 2018, Red brown fine sandstone ,yes,,,NSH
c501376c4de00b49ca3fcd58569691a3, Locality 1, 1b0ecf01ca22663048385a55d5c9b137,302797.4292,5187826.755,46.814783,-89.585033, 16T,216.52002,5,16, Bedding,19,135,45,-2.653, Copper Harbor Conglomerate , Fri Aug  3 10:55:58 2018, ,yes,,,NSH
c501376c4de00b49ca3fcd58569691a3, Locality 1, 35957caaf60db782635afd99381c2749,302773.3575,5187945.605,46.815845,-89.585399, 16T,211.44342,5,6, Bedding,13,151,61,-2.653, Copper Harbor Conglomerate , Fri Aug  3 10:51:04 2018, Red brown fine sandstone ,yes,,,NSH
c501376c4de00b49ca3fcd58569691a3, Locality 1, 2b10b01ce9642aaad596cec9540b6e21,275125.6375,5173057.431,46.673285,-89.940078, 16T,255.919922,5,6, Bedding,10,303,213,-2.653, Freda Formation, Thu Aug  2 18:37:59 2018, ,yes,,,NSH
c501376c4de00b49ca3fcd58569691a3, Locality 1, 4ae3da0626089b03afbadf4cc07d3288,275121.4443,5172979.047,46.672579,-89.940095, 16T,275.045837,5,24, Bedding,9,324,234,-2.653, Freda Formation, Thu Aug  2 18:04:42 2018, ,yes,,,NSH
c501376c4de00b49ca3fcd58569691a3, Locality 1, 7adbf0d8d980ec7f0f5ab6271d2ee534,275131.472,5172884.883,46.671736,-89.939918, 16T,253.743774,10,12, Bedding,14,340,250,-2.653, Freda Formation, Thu Aug  2 16:38:07 2018, ,yes,,,NSH
c501376c4de00b49ca3fcd58569691a3, Locality 1, 87f22443f99e49de00308943e89adca2,275135.8443,5172892.801,46.671809,-89.939865, 16T,249.00354,5,6, Bedding,11,357,267,-2.653, Freda Formation, Thu Aug  2 16:37:39 2018, ,yes,,,NSH
c501376c4de00b49ca3fcd58569691a3, Locality 1, 052c01d980858069506fadc2b1ededc1,275137.8125,5172896.854,46.671846,-89.939841, 16T,252.550171,5,6, Bedding,9,330,240,-2.653, Freda Formation, Thu Aug  2 16:37:25 2018, ,yes,,,NSH
c501376c4de00b49ca3fcd58569691a3, Locality 1, 595c978d401d5f414fb51c4eac68e95f,275138.1999,5172912.895,46.67199,-89.939844, 16T,252.862061,5,12, Bedding,10,328,238,-2.653, Freda Formation, Thu Aug  2 16:36:46 2018, ,yes,,,NSH
c501376c4de00b49ca3fcd58569691a3, Locality 1, fd270127a35dd3ac0f8f1fd190cb69f0,275140.2081,5172912.862,46.671991,-89.939818, 16T,253.279541,5,8, Bedding,8,325,235,-2.653, Freda Formation, Thu Aug  2 16:36:09 2018, ,yes,,,NSH
c501376c4de00b49ca3fcd58569691a3, Locality 1, fe0cc8a5cd09f2502529a28f28e237da,275090.2937,5172740.852,46.670428,-89.940385, 16T,262.912292,10,16, Bedding,16,347,257,-2.653, Nonesuch Formation, Thu Aug  2 14:45:10 2018, ,yes,,,NSH
c501376c4de00b49ca3fcd58569691a3, Locality 1, b06bce836a3a32714a53c67269746071,275087.1292,5172718.014,46.670222,-89.940415, 16T,271.904907,10,24, Bedding,19,8,278,-2.653, Nonesuch Formation, Thu Aug  2 14:41:31 2018, ,yes,,,NSH
c501376c4de00b49ca3fcd58569691a3, Locality 1, 4f2e44cfbaa63e313ef8a766456f191a,275080.8367,5172705.789,46.67011,-89.940492, 16T,268.127441,5,6, Bedding,18,354,264,-2.653, Nonesuch Formation, Thu Aug  2 14:22:40 2018, ,yes,,,NSH
c501376c4de00b49ca3fcd58569691a3, Locality 1, 6464798cb29d092cfece713b754f1ecb,275078.8012,5172700.969,46.670066,-89.940516, 16T,267.638916,5,6, Bedding,22,356,266,-2.653, Nonesuch Formation, Thu Aug  2 14:22:23 2018, ,yes,,,NSH
c501376c4de00b49ca3fcd58569691a3, Locality 1, 7aa4a0ce9b24bdca211d96d2bf070811,275094.3526,5172643.12,46.669551,-89.940285, 16T,256.58667,5,8, Bedding,18,7,277,-2.653, Nonesuch Formation, Thu Aug  2 13:42:26 2018, ,yes,,,NSH
c501376c4de00b49ca3fcd58569691a3, Locality 1, ee90c99518c9f5e03e9fead0bf3a14a5,275094.3694,5172641.851,46.66954,-89.940284, 16T,259.997253,5,12, Bedding,18,4,274,-2.653, Nonesuch Formation, Thu Aug  2 13:42:17 2018, ,yes,,,NSH
c501376c4de00b49ca3fcd58569691a3, Locality 1, 9e03c3f41ec1703c1da55e4b80879117,275097.8012,5172569.943,46.668895,-89.940204, 16T,262.378174,10,16, Bedding,18,358,268,-2.653, Nonesuch Formation, Thu Aug  2 12:44:41 2018, ,yes,,,NSH
c501376c4de00b49ca3fcd58569691a3, Locality 1, f7261e8efb87a4055f45f572ff890343,275128.5219,5172485.74,46.668148,-89.939762, 16T,278.998413,10,8, Bedding,18,359,269,-2.653, Nonesuch Formation, Thu Aug  2 11:10:16 2018, ,yes,,,NSH
c501376c4de00b49ca3fcd58569691a3, Locality 1, c02a0403d76ac04a707272ba8d0a6276,275124.4964,5172479.381,46.66809,-89.939811, 16T,273.666077,10,8, Bedding,20,1,271,-2.653, Nonesuch Formation, Thu Aug  2 11:09:44 2018, ,yes,,,NSH
c501376c4de00b49ca3fcd58569691a3, Locality 1, e42c9ccea0aed21e6d5f5368a8dbbd17,275114.1281,5172480.594,46.668097,-89.939947, 16T,281.077942,30,24, Bedding,21,340,250,-2.653, Nonesuch Formation, Thu Aug  2 11:09:15 2018, ,yes,,,NSH
c501376c4de00b49ca3fcd58569691a3, Locality 1, 487f6bfb0af297880f206dc7d794aec9,303759.1914,5188538.306,46.821464,-89.572744, 16T,197.196777,5,8, Bedding,19,121,31,-2.653, Nonesuch Formation, Wed Aug  1 16:46:59 2018, ,yes,,,NSH
c501376c4de00b49ca3fcd58569691a3, Locality 1, 6393e306e8a866ce505f5eb4bc3656e3,303742.4767,5188464.158,46.820793,-89.572931, 16T,204.658447,10,3, Bedding,19,118,28,-2.653, Nonesuch Formation, Wed Aug  1 16:32:47 2018, ,yes,,,NSH
c501376c4de00b49ca3fcd58569691a3, Locality 1, ae8067bcbbc14aa4b6eb108577ae9e1c,303806.417,5188398.993,46.820226,-89.572066, 16T,208.751099,5,6, Bedding,18,116,26,-2.653, Nonesuch Formation, Wed Aug  1 16:24:19 2018, Massive light greenish grey very fine sandstone ,yes,,,NSH
c501376c4de00b49ca3fcd58569691a3, Locality 1, c33f78d878968aaaa112965e6b55886a,303867.5267,5188289.761,46.819262,-89.571218, 16T,186.473511,10,24, Bedding,18,140,50,-2.653, Nonesuch Formation, Wed Aug  1 16:13:34 2018, Blue-green grey very fine sandstone ,yes,,,NSH
c501376c4de00b49ca3fcd58569691a3, Locality 1, f5054e2f44b6a655304b6136fd510944,303856.1403,5188134.173,46.817859,-89.571301, 16T,207.675171,5,4, Bedding,17,134,44,-2.653, Nonesuch Formation, Wed Aug  1 16:01:04 2018, Dark grey shale/siltstone ,yes,,,NSH
c501376c4de00b49ca3fcd58569691a3, Locality 1, d9f7b85c811f60c6584d4ad2a6fd6b4e,303973.0153,5187732.896,46.814286,-89.569598, 16T,222.522705,5,6, Bedding,18,131,41,-2.653, Nonesuch Formation, Wed Aug  1 15:09:36 2018, ,yes,,,NSH
c501376c4de00b49ca3fcd58569691a3, Locality 1, ff660b59262bd6af8b4036d8327631d6,303985.8113,5187709.831,46.814083,-89.569421, 16T,218.617188,5,4, Bedding,22,144,54,-2.653, Nonesuch Formation, Wed Aug  1 15:04:34 2018, ,yes,,,NSH
c501376c4de00b49ca3fcd58569691a3, Locality 1, 9a339f67aabab1949966d774e54b7861,304012.7846,5187648.391,46.813538,-89.569041, 16T,214.692505,5,6, Bedding,14,128,38,-2.653, Freda Formation, Wed Aug  1 15:02:10 2018, ,yes,,,NSH
c501376c4de00b49ca3fcd58569691a3, Locality 1, 61e83e59c809d43f4405ed81674ec812,304020.4562,5187635.381,46.813424,-89.568935, 16T,216.697083,5,6, Bedding,14,120,30,-2.653, Freda Formation, Wed Aug  1 15:01:07 2018, ,yes,,,NSH
c501376c4de00b49ca3fcd58569691a3, Locality 1, 7c016768c9e8b3c6a599a67620a13db6,304023.8895,5187612.365,46.813218,-89.56888, 16T,217.911743,5,6, Bedding,8,109,19,-2.653, Freda Formation, Wed Aug  1 15:00:33 2018, ,yes,,,NSH
c501376c4de00b49ca3fcd58569691a3, Locality 1, 97b08d99ab7546014209ffd7b5d1b5c5,304025.0939,5187605.156,46.813153,-89.568862, 16T,211.199463,5,6, Bedding,13,101,11,-2.653, Freda Formation, Wed Aug  1 14:59:17 2018, ,yes,,,NSH
c501376c4de00b49ca3fcd58569691a3, Locality 1, 245ca58c4f537e87ed7a09fe9405407d,304033.3405,5187524.401,46.81243,-89.568719, 16T,204.306458,5,16, Bedding,17,86,356,-2.653, Nonesuch Formation, Wed Aug  1 14:54:27 2018, ,yes,,,NSH
c501376c4de00b49ca3fcd58569691a3, Locality 1, 80399413b5b71516c2297e67574c6b86,304064.1399,5187491.828,46.812146,-89.568302, 16T,216.798523,5,6, Bedding,13,72,342,-2.653, Nonesuch Formation, Wed Aug  1 14:52:27 2018, ,yes,,,NSH
c501376c4de00b49ca3fcd58569691a3, Locality 1, 17d60d47553c3cfbca631d31073d00a8,304058.1067,5187512.864,46.812333,-89.56839, 16T,215.055298,5,6, Bedding,13,81,351,-2.653, Nonesuch Formation, Wed Aug  1 14:51:21 2018, ,yes,,,NSH
c501376c4de00b49ca3fcd58569691a3, Locality 1, fbbb537498451dc3ae5f9ef8ce45cfd0,304058.2292,5187544.793,46.81262,-89.568402, 16T,225.727051,5,6, Bedding,18,87,357,-2.653, Nonesuch Formation, Wed Aug  1 14:48:14 2018, ,yes,,,NSH
c501376c4de00b49ca3fcd58569691a3, Locality 1, 1866162274bd543f9a5bcd6b30f05049,304056.8253,5187553.146,46.812695,-89.568424, 16T,227.82135,5,6, Bedding,18,79,349,-2.653, Nonesuch Formation, Wed Aug  1 14:47:54 2018, ,yes,,,NSH
c501376c4de00b49ca3fcd58569691a3, Locality 1, 70fb5b94b6cd90c7c78974236a8e045b,304050.3733,5187564.895,46.812799,-89.568513, 16T,228.058838,5,6, Bedding,21,102,12,-2.653, Nonesuch Formation, Wed Aug  1 14:47:20 2018, ,yes,,,NSH
c501376c4de00b49ca3fcd58569691a3, Locality 1, e6c045bcfd7a5a924ec3aa68ecf212df,304053.1701,5187592.084,46.813044,-89.568488, 16T,216.179626,5,6, Bedding,26,158,68,-2.653, Nonesuch Formation, Wed Aug  1 14:42:41 2018, ,yes,,,NSH
c501376c4de00b49ca3fcd58569691a3, Locality 1, 42491eac2e406254ca49bec07e577dba,304017.633,5187694.851,46.813958,-89.568998, 16T,219.776062,5,4, Bedding,16,138,48,-2.653, Freda Formation, Wed Aug  1 14:39:19 2018, Red brown very fine sandstone ,yes,,,NSH
c501376c4de00b49ca3fcd58569691a3, Locality 1, 51aa262d68ee21da4841515d6adb0648,303967.7175,5187820.199,46.81507,-89.569705, 16T,223.277771,5,4, Bedding,15,114,24,-2.653, Nonesuch Formation, Wed Aug  1 14:24:39 2018, Green very fine sandstone ,yes,,,NSH
c501376c4de00b49ca3fcd58569691a3, Locality 1, c4883da565c5ec2c64d23359ca00cad0,303952.7513,5187848.915,46.815323,-89.569913, 16T,209.628784,5,6, Bedding,14,133,43,-2.653, Nonesuch Formation, Wed Aug  1 14:22:44 2018, ,yes,,,NSH
c501376c4de00b49ca3fcd58569691a3, Locality 1, 2bcb8be274a5059d17bc37b57e0d1812,303895.2762,5187865.062,46.815452,-89.570673, 16T,217.703064,5,6, Bedding,15,126,36,-2.653, Nonesuch Formation, Wed Aug  1 14:16:03 2018,   Purple grey very fine sandstone ,yes,,,NSH
c501376c4de00b49ca3fcd58569691a3, Locality 1, f11dbe0727c8647bc6b28848eeda5081,303905.2368,5187920.039,46.815949,-89.570566, 16T,201.202026,5,6, Bedding,14,125,35,-2.653, Nonesuch Formation, Wed Aug  1 14:12:06 2018, ,yes,,,NSH
c501376c4de00b49ca3fcd58569691a3, Locality 1, c59941f040a46b692c431137e75d64f1,303930.6464,5188068.618,46.817292,-89.570297, 16T,204.542969,5,4, Bedding,17,141,51,-2.653, Nonesuch Formation, Wed Aug  1 13:54:35 2018, Thinly bedded very fine to fine sandstone ,yes,,,NSH
c501376c4de00b49ca3fcd58569691a3, Locality 1, c0ca617f763437217bebb77e8974aba8,275158.4387,5172398.896,46.667378,-89.939329, 16T,266.626953,5,12, Bedding,20,333,243,-2.653, Nonesuch Formation, Tue Jul 31 16:04:55 2018, ,yes,,,NSH
c501376c4de00b49ca3fcd58569691a3, Locality 1, ed1576df401626a5d092fd9ee27d66f2,275158.4387,5172398.896,46.667378,-89.939329, 16T,266.626953,5,12, Bedding,15,357,267,-2.653, Nonesuch Formation, Tue Jul 31 16:04:03 2018, ,yes,,,NSH
c501376c4de00b49ca3fcd58569691a3, Locality 1, 0003185c0dd0edfb77d9a6d725101e4c,275158.4387,5172398.896,46.667378,-89.939329, 16T,266.626953,5,12, Bedding,16,5,275,-2.653, Nonesuch Formation, Tue Jul 31 16:03:48 2018, ,yes,,,NSH
c501376c4de00b49ca3fcd58569691a3, Locality 1, 2a75a6df633827f09bbd84f956320caf,275171.4949,5172242.035,46.665972,-89.939082, 16T,289.032593,10,16, Bedding,20,348,258,-2.653, Nonesuch Formation, Tue Jul 31 14:32:28 2018, ,yes,,,NSH
c501376c4de00b49ca3fcd58569691a3, Locality 1, 8f417191f88abd8d71b518d062d05c6b,275279.5399,5172135.604,46.665052,-89.93762, 16T,268.261292,10,6, Bedding,20,357,267,-2.653, Nonesuch Formation, Tue Jul 31 13:06:48 2018, ,yes,,,NSH
c501376c4de00b49ca3fcd58569691a3, Locality 1, 6085cee2c52f9da464304591d5775828,275266.9996,5172100.833,46.664735,-89.937766, 16T,261.563538,10,8, Bedding,23,12,282,-2.653, Copper Harbor Conglomerate , Tue Jul 31 11:14:04 2018, ,yes,,,NSH
c501376c4de00b49ca3fcd58569691a3, Locality 1, 76f4c0b7914e709db13fbe6e711625b7,275255.5975,5172105.157,46.66477,-89.937917, 16T,267.947083,10,12, Bedding,22,356,266,-2.653, Copper Harbor Conglomerate , Tue Jul 31 11:13:42 2018, ,yes,,,NSH
c501376c4de00b49ca3fcd58569691a3, Locality 1, bc4501af1c48f3aa3a99863f49863051,275129.7466,5172049.954,46.664232,-89.939533, 16T,274.819885,5,6, Bedding,18,3,273,-2.205, Copper Harbor Conglomerate , Tue Jul 31 09:18:39 2018, ,yes,,,NSH
c501376c4de00b49ca3fcd58569691a3, Locality 1, d52e246477d2370cbf2bd26e87fd73bc,275138.3198,5172050.683,46.664241,-89.939422, 16T,275.017517,5,6, Bedding,21,5,275,-2.205, Copper Harbor Conglomerate , Tue Jul 31 09:18:29 2018, ,yes,,,NSH
c501376c4de00b49ca3fcd58569691a3, Locality 1, ac4186493bb9069d2b465876f09e0160,275151.8726,5172053.058,46.664267,-89.939246, 16T,280.069458,5,6, Bedding,20,12,282,-2.205, Copper Harbor Conglomerate , Tue Jul 31 09:18:11 2018, ,yes,,,NSH
c501376c4de00b49ca3fcd58569691a3, Locality 1, c316717f5d88c30b9121027d3feba16b,275163.0592,5172048.122,46.664227,-89.939098, 16T,277.530457,5,6, Bedding,19,357,267,-2.205, Copper Harbor Conglomerate , Tue Jul 31 09:17:54 2018, ,yes,,,NSH
c501376c4de00b49ca3fcd58569691a3, Locality 1, 266590e039c9c631fc91e8356b597cec,275175.3691,5172044.38,46.664197,-89.938935, 16T,278.090515,5,4, Bedding,20,359,269,-2.205, Copper Harbor Conglomerate , Tue Jul 31 09:17:39 2018, ,yes,,,NSH
c501376c4de00b49ca3fcd58569691a3, Locality 1, faf84db724a97c67b49ae8eac42eb83a,275179.789,5172048.057,46.664232,-89.938879, 16T,278.491882,5,6, Bedding,17,6,276,-2.205, Copper Harbor Conglomerate , Tue Jul 31 09:17:28 2018, ,yes,,,NSH
c501376c4de00b49ca3fcd58569691a3, Locality 1, f71ca932fe8156e878cbd281bb98b3d8,275179.8987,5172043.6,46.664192,-89.938875, 16T,284.44104,5,8, Bedding,20,356,266,-2.205, Copper Harbor Conglomerate , Tue Jul 31 09:17:20 2018, ,yes,,,NSH
c501376c4de00b49ca3fcd58569691a3, Locality 1, 2145562f6f06e28b69dae2f4829e2ee2,275016.4306,5172006.889,46.663807,-89.940992, 16T,277.395813,5,6, Bedding,12,69,339,-2.205, Copper Harbor Conglomerate , Tue Jul 31 08:51:00 2018, ,yes,,,NSH
c501376c4de00b49ca3fcd58569691a3, Locality 1, f285ded48106376c265b8c8aaf005b7b,275013.0214,5172006.723,46.663804,-89.941036, 16T,277.278564,10,12, Fault,21,73,343,-2.205, Copper Harbor Conglomerate , Tue Jul 31 08:50:12 2018, ,yes,,,NSH
c501376c4de00b49ca3fcd58569691a3, Locality 1, 11bad273c6ae49400352d59ebdfa3329,275121.7011,5173045.37,46.673175,-89.940124, 16T,241.077332,10,16, Bedding,11,288,198,-2.205, Freda Formation, Mon Jul 30 14:09:49 2018, ,yes,,,NSH
c501376c4de00b49ca3fcd58569691a3, Locality 1, eff0a1d58651340270a886dabfe3b298,275113.8134,5173024.979,46.67299,-89.940217, 16T,246.447876,10,8, Bedding,7,304,214,-2.205, Freda Formation, Mon Jul 30 14:06:10 2018, ,yes,,,NSH
c501376c4de00b49ca3fcd58569691a3, Locality 1, f7f7a5fa4321e71c570b397aad2a8810,275128.4645,5172973.814,46.672535,-89.940001, 16T,246.511841,5,8, Bedding,9,321,231,-2.205, Freda Formation, Mon Jul 30 13:52:07 2018, ,yes,,,NSH
c501376c4de00b49ca3fcd58569691a3, Locality 1, 25721a2868e2e5bd18d3d426feecaa8b,275128.2896,5172959.337,46.672404,-89.939996, 16T,247.017212,5,8, Bedding,9,326,236,-2.205, Freda Formation, Mon Jul 30 13:51:43 2018, ,yes,,,NSH
c501376c4de00b49ca3fcd58569691a3, Locality 1, 137a0eaebbc0af1393ee4a8fd5029aae,275123.4509,5172951.823,46.672335,-89.940055, 16T,250.470093,5,6, Bedding,10,303,213,-2.205, Freda Formation, Mon Jul 30 13:51:21 2018, ,yes,,,NSH
c501376c4de00b49ca3fcd58569691a3, Locality 1, 98d4fa8d0964481fe9ee974ff2567e68,275126.6776,5172933.717,46.672174,-89.940004, 16T,252.218628,5,6, Bedding,7,333,243,-2.205, Freda Formation, Mon Jul 30 13:50:20 2018, Red brown very fine sandstone ,yes,,,NSH
c501376c4de00b49ca3fcd58569691a3, Locality 1, ce08f1463d58b58ae53d860afcf095f0,275141.8903,5172832.957,46.671273,-89.939757, 16T,254.763611,5,6, Bedding,18,341,251,-2.205, Nonesuch Formation, Mon Jul 30 13:35:56 2018, Purple to green siltstone ,yes,,,NSH
c501376c4de00b49ca3fcd58569691a3, Locality 1, 80d55388ed4a7b0885d1c2cd2cda0e31,275090.8835,5172701.996,46.670079,-89.940359, 16T,268.992065,10,16, Bedding,17,10,280,-2.205, Nonesuch Formation, Mon Jul 30 13:24:01 2018, ,yes,,,NSH
c501376c4de00b49ca3fcd58569691a3, Locality 1, aeedd444b4109298145a8593f1741aed,275108.1556,5172575.754,46.66895,-89.940072, 16T,252.51123,5,8, Bedding,16,2,272,-2.205, Nonesuch Formation, Mon Jul 30 12:42:01 2018, ,yes,,,NSH
c501376c4de00b49ca3fcd58569691a3, Locality 1, ac42c04ea979c7e0130dcdbffad8463d,275139.9854,5172478.098,46.668083,-89.939608, 16T,260.433167,10,24, Bedding,19,8,278,-2.205, Nonesuch Formation, Mon Jul 30 12:24:41 2018, ,yes,,,NSH
c501376c4de00b49ca3fcd58569691a3, Locality 1, 4c282736cdd8a3ae11b888a398478ab5,275166.249,5172349.129,46.666933,-89.939203, 16T,274.060547,5,12, Bedding,17,352,262,-2.205, Nonesuch Formation, Mon Jul 30 12:05:14 2018, Dark grey siltstone to very fine sandstone ,yes,,,NSH
c501376c4de00b49ca3fcd58569691a3, Locality 1, 1781213a18eecb05c66c6bfb397922ec,275225.8856,5172209.27,46.665696,-89.938356, 16T,256.057007,5,6, Bedding,23,343,253,-2.205, Nonesuch Formation, Mon Jul 30 11:40:31 2018, ,yes,,,NSH
c501376c4de00b49ca3fcd58569691a3, Locality 1, c6517e0bab4c57010dc757c4e19a1f5b,275232.815,5172174.234,46.665383,-89.938248, 16T,258.515747,5,4, Bedding,21,352,262,-2.205, Nonesuch Formation, Mon Jul 30 11:39:18 2018, Green shale/siltstone ,yes,,,NSH
c501376c4de00b49ca3fcd58569691a3, Locality 1, 716b7fa3cd21ae72532c272d20aded63,275276.9815,5172132.771,46.665026,-89.937652, 16T,268.686218,10,8, Bedding,27,18,288,-2.205, Nonesuch Formation, Mon Jul 30 11:29:07 2018, ,yes,,,NSH
c501376c4de00b49ca3fcd58569691a3, Locality 1, 6306948cafb3cc02870908dd9d6c9c10,275265.2932,5172099.325,46.664721,-89.937788, 16T,264.140259,10,12, Bedding,19,8,278,-2.205, Copper Harbor Conglomerate , Mon Jul 30 11:15:01 2018, ,yes,,,NSH
c501376c4de00b49ca3fcd58569691a3, Locality 1, 4f12d20cbbf9fe7cdf20f2e24557a4a2,275273.9976,5172140.04,46.66509,-89.937694, 16T,281.817322,10,24, Bedding,20,358,268,-2.205, Nonesuch Formation, Mon Jul 30 11:03:51 2018, ,yes,,,NSH
c501376c4de00b49ca3fcd58569691a3, Locality 1, e563809edab73380f643414f7af816d2,275277.3202,5172138.578,46.665078,-89.93765, 16T,284.56958,5,16, Bedding,19,352,262,-2.205, Nonesuch Formation, Mon Jul 30 11:03:36 2018, ,yes,,,NSH
c501376c4de00b49ca3fcd58569691a3, Locality 1, 0f2c382ac20c20bd721c287eba2c7c21,275078.5804,5172051.329,46.664227,-89.940202, 16T,269.66333,5,6, Bedding,23,349,259,-2.205, Copper Harbor Conglomerate , Mon Jul 30 10:38:42 2018, ,yes,,,NSH
c501376c4de00b49ca3fcd58569691a3, Locality 1, d5f8f4e36c2db85d98e5d78487de2673,275038.85,5172028.495,46.664009,-89.940709, 16T,281.887207,10,16, Bedding,19,354,264,-2.205, Copper Harbor Conglomerate , Mon Jul 30 10:33:38 2018, ,yes,,,NSH
c501376c4de00b49ca3fcd58569691a3, Locality 1, 3f1f26252f92318576ae48d94e9448fe,275015.471,5172002.858,46.66377,-89.941002, 16T,271.504883,5,6, Fault,19,74,344,-2.205, Copper Harbor Conglomerate , Mon Jul 30 10:30:54 2018, Trough axis,yes,,,NSH
c501376c4de00b49ca3fcd58569691a3, Locality 1, 351e217a6a61048213a3c4c4ba0d0b76,274941.2442,5171815.708,46.662063,-89.94188, 16T,270.45752,5,6, Bedding,25,350,260,-2.205, Copper Harbor Conglomerate , Mon Jul 30 10:01:13 2018, Sandstone lense within cobble conglomerate ,yes,,,NSH
c501376c4de00b49ca3fcd58569691a3, Locality 1, 60c02828f511fb8989335ac3a30c0de9,274908.2163,5171693.962,46.660958,-89.942252, 16T,290.997375,5,8, Bedding,19,351,261,-2.205, Copper Harbor Conglomerate , Mon Jul 30 09:55:54 2018, ,yes,,,NSH
c501376c4de00b49ca3fcd58569691a3, Locality 1, 874ef6e6a2dd54d7ca346d67897d347e,274936.0125,5171551.182,46.659684,-89.941819, 16T,272.203247,5,6, Bedding,27,356,266,-2.205, Copper Harbor Conglomerate , Mon Jul 30 09:52:33 2018, ,yes,,,NSH
c501376c4de00b49ca3fcd58569691a3, Locality 1, 2cc8b67691e3ab4713d3f1d6513061a9,274966.9081,5171499.89,46.659234,-89.941391, 16T,274.216003,5,12, Bedding,26,0,270,-2.205, Copper Harbor Conglomerate , Mon Jul 30 09:49:35 2018, Current ripples sandstone just below cobble conglomerate ,yes,,,NSH
c501376c4de00b49ca3fcd58569691a3, Locality 1, 101116a86bc96cdb6421ec9ab4209425,275007.6152,5171445.997,46.658763,-89.940833, 16T,282.220642,5,8, Bedding,21,7,277,-2.205, Copper Harbor Conglomerate , Mon Jul 30 09:47:27 2018, Recessive sandstone interval downstream of falls within CHC,yes,,,NSH
c501376c4de00b49ca3fcd58569691a3, Locality 1, 1ead498ac2bf103654b52e0b6ffd3909,275029.5147,5171427.51,46.658604,-89.940538, 16T,279.404358,5,8, Bedding,22,354,264,-2.205, Copper Harbor Conglomerate , Mon Jul 30 09:43:26 2018, Sandstone bed within conglomerate at Lepisto Falls,yes,,,NSH
c501376c4de00b49ca3fcd58569691a3, Locality 1, 06db7bed338a71884f5ca9158eb13b29,689645.555,5148334.878,46.461909,-90.530151, 15T,283.861816,10,6, Bedding,73,308,218,-2.205, Freda Formation, Sun Jul 29 16:07:12 2018, ,yes,,,NSH
c501376c4de00b49ca3fcd58569691a3, Locality 1, e0711122574ace40a9873cf5abc11b61,689649.402,5148329.283,46.461858,-90.530103, 15T,285.159424,10,4, Bedding,86,305,215,-2.205, Freda Formation, Sun Jul 29 16:06:50 2018, ,yes,,,NSH
c501376c4de00b49ca3fcd58569691a3, Locality 1, 931981ce4da3ec1c7992cb2878f50a31,689658.5204,5148320.745,46.461779,-90.529988, 15T,279.559204,10,6, Bedding,85,309,219,-2.205, Nonesuch Formation, Sun Jul 29 16:06:12 2018, ,yes,,,NSH
c501376c4de00b49ca3fcd58569691a3, Locality 1, 23e7d32cb47d0a5b4050170f1d30283d,689654.9788,5148267.954,46.461305,-90.530056, 15T,274.556641,10,4, Bedding,77,307,217,-2.205, Nonesuch Formation, Sun Jul 29 15:53:14 2018, ,yes,,,NSH
c501376c4de00b49ca3fcd58569691a3, Locality 1, eeb38fbe4abec6b24a08ed7c1fffd0db,689657.3571,5148267.506,46.4613,-90.530025, 15T,274.359558,10,4, Bedding,83,308,218,-2.205, Nonesuch Formation, Sun Jul 29 15:53:00 2018, ,yes,,,NSH
c501376c4de00b49ca3fcd58569691a3, Locality 1, e35a2e10cbb3867d37d68eb7e982b95e,689652.6817,5148270.133,46.461325,-90.530085, 15T,274.642944,10,12, Bedding,79,322,232,-2.205, Nonesuch Formation, Sun Jul 29 15:49:16 2018, ,yes,,,NSH
c501376c4de00b49ca3fcd58569691a3, Locality 1, 5c7f8714663ea48e5d57982491d41170,689656.9723,5148262.917,46.461259,-90.530032, 15T,278.775513,10,24, Bedding,80,312,222,-2.205, Nonesuch Formation, Sun Jul 29 15:48:22 2018, ,yes,,,NSH
c501376c4de00b49ca3fcd58569691a3, Locality 1, d4fa99d8c6e06a0d44ee81d60dec77c5,689727.2663,5148230.674,46.460949,-90.52913, 15T,289.666382,10,12, Bedding,78,299,209,-2.205, Nonesuch Formation, Sun Jul 29 15:31:37 2018, ,yes,,,NSH
c501376c4de00b49ca3fcd58569691a3, Locality 1, 3e9872e6a062879b919e2f708ab9f68a,689906.0523,5148175.674,46.460405,-90.526827, 15T,323.179626,5,8, Bedding,80,291,201,-2.205, Copper Harbor Conglomerate , Sun Jul 29 15:05:33 2018, ,yes,,,NSH
c501376c4de00b49ca3fcd58569691a3, Locality 1, 2f61e7566a480bfb23f2a5a679840ab5,681599.3981,5138531.75,46.375974,-90.638658, 15T,314.537476,5,6, Bedding,89,289,199,-2.205, Copper Harbor Conglomerate , Sun Jul 29 13:10:40 2018, ,yes,,,NSH
c501376c4de00b49ca3fcd58569691a3, Locality 1, 4313418b538c38268e4376f9eceeb0e5,681434.7787,5138585.344,46.3765,-90.640776, 15T,298.50061,5,6, Bedding,82,277,187,-2.205, Nonesuch Formation, Sun Jul 29 11:54:19 2018, ,yes,,,NSH
c501376c4de00b49ca3fcd58569691a3, Locality 1, 4ad00385da196384134d05d29401129b,681434.7735,5138585.883,46.376505,-90.640776, 15T,306.986816,10,4, Bedding,85,284,194,-2.205, Nonesuch Formation, Sun Jul 29 11:51:15 2018, ,yes,,,NSH
c501376c4de00b49ca3fcd58569691a3, Locality 1, e44ff9bc0971b26094fc6bd44037f52c,681433.1847,5138583.627,46.376485,-90.640797, 15T,312.708923,10,12, Bedding,84,279,189,-2.205, Freda Formation, Sun Jul 29 11:50:36 2018, ,yes,,,NSH
c501376c4de00b49ca3fcd58569691a3, Locality 1, d33a3698a09ec653cd0e7589facc5c49,681428.2668,5138587.149,46.376518,-90.64086, 15T,304.329712,5,8, Bedding,81,279,189,-2.205, Freda Formation, Sun Jul 29 11:50:04 2018, ,yes,,,NSH
c501376c4de00b49ca3fcd58569691a3, Locality 1, faea1b6a95ad4db0a087d8141dd75a8b,681403.3376,5138600.784,46.376647,-90.641178, 15T,294.847534,5,6, Bedding,81,279,189,-2.205, Freda Formation, Sun Jul 29 11:47:25 2018, ,yes,,,NSH
c501376c4de00b49ca3fcd58569691a3, Locality 1, c1935fb828423bb222c62501c15c3ffa,681401.8128,5138598.044,46.376623,-90.641199, 15T,294.21875,5,6, Bedding,81,270,180,-2.205, Freda Formation, Sun Jul 29 11:47:10 2018, ,yes,,,NSH
c501376c4de00b49ca3fcd58569691a3, Locality 1, b310fc40aeddd5b90818610abe1a4275,681446.5997,5138583.479,46.37648,-90.640623, 15T,326.267334,5,12, Bedding,78,297,207,-2.205, Nonesuch Formation, Sat Jul 28 17:44:01 2018, ,yes,,,NSH
c501376c4de00b49ca3fcd58569691a3, Locality 1, 21ba8425ed9ac3e36850a0e1dc76dcad,681446.5689,5138584.512,46.376489,-90.640623, 15T,326.384888,5,12, Bedding,79,304,214,-2.205, Nonesuch Formation, Sat Jul 28 17:43:32 2018, ,yes,,,NSH
c501376c4de00b49ca3fcd58569691a3, Locality 1, a1f75b58807cc1bb2d5f27108b89ff9f,681446.5689,5138584.512,46.376489,-90.640623, 15T,322.713257,5,8, Bedding,76,297,207,-2.205, Nonesuch Formation, Sat Jul 28 17:42:38 2018, ,yes,,,NSH
c501376c4de00b49ca3fcd58569691a3, Locality 1, 4416c0c31f20b9f72a7090549c4456e3,681446.5895,5138583.823,46.376483,-90.640623, 15T,319.658508,5,8, Bedding,78,305,215,-2.205, Nonesuch Formation, Sat Jul 28 17:42:14 2018, ,yes,,,NSH
c501376c4de00b49ca3fcd58569691a3, Locality 1, 4cbecf8058e71b947f1fe65616ec094c,681448.0386,5138586.797,46.376509,-90.640603, 15T,308.281311,10,32, Bedding,80,296,206,-2.205, Nonesuch Formation, Sat Jul 28 17:41:59 2018, ,yes,,,NSH
c501376c4de00b49ca3fcd58569691a3, Locality 1, a76c9c677a37c3a9f2d11cb41e49841e,681512.8549,5138564.434,46.376291,-90.63977, 15T,384.5271,0,0, Overturned Bedding,87,118,28,-2.205, Copper Harbor Conglomerate , Sat Jul 28 13:35:25 2018, DG18-11.6,yes,,,NSH
c501376c4de00b49ca3fcd58569691a3, Locality 1, 63dfca7a8b9d033c15b0d099c4bd4fa4,681518.289,5138567.697,46.376319,-90.639698, 15T,296.071411,0,0, Bedding,86,285,195,-2.205, Copper Harbor Conglomerate , Sat Jul 28 13:22:12 2018, Medium trained sandstone within transitional CHC to Nonesuch interval. ,yes,,,NSH
c501376c4de00b49ca3fcd58569691a3, Locality 1, c693e1bf5a9431a7e1b9af95b7846cc7,681523.9582,5138564.547,46.376289,-90.639625, 15T,385.148926,0,0, Overturned Bedding,88,110,20,-2.205, Copper Harbor Conglomerate , Sat Jul 28 11:25:34 2018, ,yes,,,NSH
c501376c4de00b49ca3fcd58569691a3, Locality 1, 0fb5103af2ff63782ea4938e34fa6b93,681523.2276,5138564.399,46.376288,-90.639635, 15T,385.148926,0,0, Bedding,89,294,204,-2.205, Copper Harbor Conglomerate , Sat Jul 28 11:24:28 2018, ,yes,,,NSH
c501376c4de00b49ca3fcd58569691a3, Locality 1, c05f5e9e09ac092e2c1efc9b31d784c7,681523.9287,5138564.075,46.376285,-90.639626, 15T,393.328003,0,0, Bedding,87,287,197,-2.205, Copper Harbor Conglomerate , Sat Jul 28 11:22:09 2018, ,yes,,,NSH
c501376c4de00b49ca3fcd58569691a3, Locality 1, 49246922e37fceb8596ca5a881e2b484,681523.9492,5138563.386,46.376278,-90.639626, 15T,393.328003,0,0, Bedding,89,294,204,-2.205, Copper Harbor Conglomerate , Sat Jul 28 11:21:46 2018, ,yes,,,NSH
c501376c4de00b49ca3fcd58569691a3, Locality 1, 2954aacbed2acaaebdb6c8ef618dc154,681516.3193,5138564.193,46.376288,-90.639725, 15T,329.235718,0,0, Overturned Bedding,89,116,26,-2.205, Copper Harbor Conglomerate , Sat Jul 28 11:00:58 2018, ,yes,,,NSH
c501376c4de00b49ca3fcd58569691a3, Locality 1, 1aaf83d10b21025d8bc966f5e5f0ac0b,681521.8973,5138562.636,46.376272,-90.639653, 15T,347.520386,0,0, Overturned Bedding,87,128,38,-2.205, Copper Harbor Conglomerate , Sat Jul 28 10:59:41 2018, ,yes,,,NSH
c501376c4de00b49ca3fcd58569691a3, Locality 1, b4c66648e13538ae68c8090069275ae4,681518.4123,5138563.566,46.376281,-90.639698, 15T,332.663025,0,0, Overturned Bedding,87,102,12,-2.205, Copper Harbor Conglomerate , Sat Jul 28 10:56:30 2018, ,yes,,,NSH